#aV2024 11 11  0  0  0.00000000     288 DD+AD WGS84 FIT  NGA
## 2340  86400.00000000   300.00000000 60625 0.0000000000000
+   31     2  3  4  5  6  7  8  9 10 11 12 13 14 15 16 17 18
+         19 20 21 22 23 24 25 26 27 28 29 30 31 32  0  0  0
+          0  0  0  0  0  0  0  0  0  0  0  0  0  0  0  0  0
+          0  0  0  0  0  0  0  0  0  0  0  0  0  0  0  0  0
+          0  0  0  0  0  0  0  0  0  0  0  0  0  0  0  0  0
++         2  2  2  2  2  2  2  2  2  2  2  2  2  2  2  2  2
++         2  2  2  2  2  2  2  2  2  2  2  2  2  2  0  0  0
++         0  0  0  0  0  0  0  0  0  0  0  0  0  0  0  0  0
++         0  0  0  0  0  0  0  0  0  0  0  0  0  0  0  0  0
++         0  0  0  0  0  0  0  0  0  0  0  0  0  0  0  0  0
%c cc cc ccc ccc cccc cccc cccc cccc ccccc ccccc ccccc ccccc
%c cc cc ccc ccc cccc cccc cccc cccc ccccc ccccc ccccc ccccc
%f  0.0000000  0.000000000  0.00000000000  0.000000000000000
%f  0.0000000  0.000000000  0.00000000000  0.000000000000000
%i    0    0    0    0      0      0      0      0         0
%i    0    0    0    0      0      0      0      0         0
/*      NGA, ST. LOUIS,MO.                                  
/*   EPHEMERIS COMPUTED FROM 2 DAYS OF DATA                 
/*   EPOCHA v9 SMOOTHER                                     
/*   G2296 IERS2010 SATIGS SATAPC                           
*  2024 11 11  6 45  0.00000000
P  2  20184.498862  13539.600993 -10648.544364   -317.170762                    
V  2 -14139.342912  -1874.524609 -27605.075446      0.085231                    
P  3  12260.619774  18807.831953  14110.590586    596.621060                    
V  3   1217.440429  18132.453528 -24828.712707      0.105206                    
P  4  13946.208784   7883.196343  21223.802378    477.483735                    
V  4 -21152.960526  16584.104695   7597.570048      0.065149                    
P  5  -5291.485871 -25990.991311     91.594030   -192.635925                    
V  5   2472.448938   -170.911220  32087.957587     -0.011855                    
P  6  14812.007863  -8490.137393  20450.748691   -105.743665                    
V  6  23552.960585  10297.562884 -12720.347821     -0.290110                    
P  7  25532.219507   6587.459020  -4267.957836    -20.882273                    
V  7   4612.710118   4759.700167  30614.147598      0.023582                    
P  8   3843.098640  16245.377542 -20682.364900    410.369847                    
V  8 -20445.622502  16313.592336   9506.952557      0.103976                    
P  9  20288.867349  -1608.184753  17004.977196    438.482565                    
V  9 -15429.264994  15436.585123  19694.026065      0.169746                    
P 10 -11088.127316  13493.273331 -19678.508642   -191.444710                    
V 10  -4969.910231 -25053.944759 -14546.202728     -0.143073                    
P 11    288.858436 -15946.799570  21284.599175   -749.531400                    
V 11  24861.449198  10321.092217   7346.199668     -0.017863                    
P 12  -9397.356848 -22328.377097  10652.766974   -551.295220                    
V 12   1259.892820 -14098.876453 -27657.825613     -0.025356                    
P 13   6147.614744 -18261.044991 -18408.404786    685.530577                    
V 13  20463.600036 -10503.249430  17705.357405      0.016131                    
P 14  13730.457314  -9465.367352 -20579.279382    537.283144                    
V 14   4571.379659  25964.804712  -9101.549054      0.081465                    
P 15  -6304.079016 -15877.886828 -20830.883417    226.399493                    
V 15  17756.437492 -18190.529889   8863.979497      0.045189                    
P 16   -987.452683  25941.475423   3970.511842   -131.399550                    
V 16  -3561.168137  -5304.430445  31517.221198      0.098090                    
P 17  22695.931755 -13542.083653  -3099.209436    563.061738                    
V 17  -2151.166503   4606.526927 -31430.751674     -0.143407                    
P 18 -25204.989751  -5087.121903  -7086.798098   -660.174644                    
V 18  -7515.497079  -5319.570822  30201.751663     -0.005370                    
P 19  18873.182737 -17266.741757   6113.054642    561.381531                    
V 19   8349.287978  -1897.948600 -30842.639931      0.044837                    
P 20    670.057886 -23806.390361  11985.955158    368.844237                    
V 20   7163.085271  13447.953665  26338.381467     -0.003355                    
P 21  15562.250600  15490.137541 -15275.080773     97.736742                    
V 21 -19331.965021  -3977.777898 -22074.617868     -0.009023                    
P 22  10344.716922 -17906.963309 -16440.205091    -78.499359                    
V 22   3177.678071  21349.042423 -20455.491126     -0.029477                    
P 23 -15095.698215  -1654.017029 -21778.616538    360.804385                    
V 23  -4757.511718 -27237.893800   5135.589588      0.079674                    
P 24 -18091.850984 -15060.520871 -13144.382568   -480.889304                    
V 24  15958.317791   1804.720084 -24508.427557      0.020497                    
P 25 -15442.535744 -10282.089360  18753.697357    499.083948                    
V 25  -2808.138569 -24379.470785 -15133.551816     -0.002532                    
P 26  -6365.997545  20713.065132  14927.615130     30.142026                    
V 26  -7539.112204 -18226.640365  22209.012449     -0.131028                    
P 27  -7398.601751  20215.434587 -15565.655735    -34.732382                    
V 27 -16384.981668  10636.715997  22447.762684      0.000488                    
P 28 -16617.615394   8231.023991  19002.153593   -475.294402                    
V 28 -22341.327018  -9287.130629 -15498.776527     -0.119199                    
P 29 -19885.028673   -981.653994  17601.043521   -564.656977                    
V 29  17577.965097 -13901.850328  18917.293742      0.028595                    
P 30  22258.144928  -2739.607855 -14287.237874   -284.309463                    
V 30  16220.211258   8960.260230  23041.617745      0.077518                    
P 31  -6029.983469  14001.906229  21506.931972   -221.962589                    
V 31 -25863.481176 -10496.567133    -48.793586      0.006483                    
P 32 -20870.702886  16189.593954  -1120.830638   -575.315493                    
V 32   -559.980628  -3344.949110 -31894.798726      0.051742                    
EOF
